title,address,city,website,phone,emails,facebook,instagram,twitter,nip,ceidg
S≈Çabo≈Ñ-Sikora Aneta Biuro Rachunkowo-Podatkowe Doradca Podatkowy,Niepodleg≈Ço≈õci 14b/5,Sosnowiec,,+48 606 677 823,,,,,,
Biuro Domino,3 Maja 21,Sosnowiec,http://biurodomino.pl/,+48 32 266 68 50,,https://www.facebook.com/biurororachunkowe/,,,,
Biuro Rachunkowe Black & White Katarzyna Straszak,Ptasia 18/8,Sosnowiec,https://www.e-ksiegowa.com.pl/,+48 798 709 804,biuro@e-ksiegowa.com.pl,https://www.facebook.com/Biuro-Rachunkowe-Black-White-Katarzyna-Straszak-287461635487873,,,,
Kancelaria Doradztwa Podatkowego Kasprzyk & Nizio≈Çek,Wsp√≥lna 4,Sosnowiec,http://biuro-rachunkowo-podatkowe.pl/,+48 696 665 699,,https://www.facebook.com/kancelariadoradztwapodatkowegokasprzykniziolek/,,,,
"Biuro Rachunkowe ""Dobre"" Rozliczenia Sosnowiec",Jana III Sobieskiego 3B,Sosnowiec,,+48 797 844 266,,,,,,
Biuro Rachunkowe Sosnowiec,al. Zwyciƒôstwa 1/2,Sosnowiec,https://www.facebook.com/profile.php?id=100086802947472,+48 32 266 53 99,,https://www.facebook.com/profile.php?id=100086802947472,,,,
Biuro Rachunkowe Advizor,Stanis≈Çawa Ma≈Çachowskiego 28,Sosnowiec,https://advizor.pl/,+48 32 785 01 27,annaszostak@advizor.pl,https://www.facebook.com/biurorachunkowesosnowiec/reviews/?ref=page_internal,,,6443491454,
Kancelaria Doradcy Podatkowego Wanda Nowak,Niepodleg≈Ço≈õci 7a/7,Sosnowiec,http://kpwn.pl/,+48 32 297 98 36,"kancelaria@kpwn.pl, biuro@kpwn.pl, sekretariat@kpwn.pl",,,,,
Biuro Rachunkowe Urszula Chajduga,Majora Henryka Dobrza≈Ñskiego-Hubala 124/7,Sosnowiec,http://www.doradcapodatkowysosnowiec.pl/,+48 32 263 42 63,"urszula5@teln.pl, biuro@podatkisosnowiec.pl",https://www.facebook.com/Biuro-Rachunkowe-Urszula-Chajduga-1467288963534952/,,,,
Biuro Rachunkowe J&J TimeTax Sp.zo.o.,Wsp√≥lna 24,Sosnowiec,,+48 515 772 592,,,,,,
Biuro Rachunkowe OPTI-TAX Sosnowiec Ksiƒôgowo≈õƒá,Hanki Ordon√≥wny 14/2,Sosnowiec,http://www.opti-tax.pl/,+48 514 428 849,"biuro@opti-tax.pl, hello@fochtman.studio",,,,,
Biuro Rachunkowe Ekonomikus,Podjazdowa 10/21,Sosnowiec,http://www.ekonomikus.com.pl/,+48 32 555 04 79,biuro@ekonomikus.pl,https://www.facebook.com/Ekonomikus-2614504138567713,,,,
Saldex Kancelaria Podatkowo -Rachunkowa Sosnowiec Katowice,Henryka Sienkiewicza 23/1,Sosnowiec,http://saldex.pl/,+48 32 266 31 75,biuro@saldex.pl,https://www.facebook.com/saldexkancelaria/,,,,
"Biuro Rachunkowe ""PERFEKT"" Sosnowiec",Cypriana Kamila Norwida 4,Sosnowiec,http://www.biuro-perfekt.pl/,+48 513 107 532,,,,,,
Cogito sp.j. Kancelaria podatkowa,Kuku≈Çek 50,Sosnowiec,,+48 32 783 80 80,,,,,,
Biuro Rachunkowe PASJA Agnieszka Cie≈õlak,Osiedle Naftowa 51,Sosnowiec,http://biuropasja.sosnowiec.pl/,+48 509 768 036,biuropasja@onet.pl,,,,,
Biuro rachunkowe Doradztwo podatkowe Sosnowiec,Jana Dekerta 6,Sosnowiec,,+48 660 476 644,,,,,,
Doradztwo podatkowo - ksiƒôgowe s.c.,Modrzejowska 32A,Sosnowiec,http://www.doradztwo-podatkowe.sosnowiec.pl/,+48 32 296 39 00,MDMpodatki@poczta.fm,,,,,
Biuro rachunkowe Sosnowiec,Modrzejowska 32,Sosnowiec,https://www.doradztwo-podatkowe.sosnowiec.pl/,+48 32 296 39 00,MDMpodatki@poczta.fm,,,,,
Zawartka Jolanta. Kancelaria Doradztwa Podatkowego,al. Zwyciƒôstwa 1,Sosnowiec,,+48 600 221 756,,,,,,
Digesta - Biuro Rachunkowe Podatkowe Sosnowiec,3 Maja 21,Sosnowiec,http://www.rachunkowe-sosnowiec.pl/,+48 32 266 37 81,,,,,,
Biuro rachunkowe Sosnowiec,Modrzejowska 32,Sosnowiec,https://www.doradztwo-podatkowe.sosnowiec.pl/,+48 32 296 39 00,MDMpodatki@poczta.fm,,,,,
Finans 95,Wojska Polskiego 25-27,Sosnowiec,https://mapa.targeo.pl/biuro-rachunkowo-podatkowe-finans-95-ul-wojska-polskiego-25-27-41-200-sosnowiec~13671014/biuro-rachunkowe/adres,,,https://www.facebook.com/sharer/sharer.php?u=https://mapa.targeo.pl/biuro-rachunkowo-podatkowe-finans-95-ul-wojska-polskiego-25-27-41-200-sosnowiec~13671014/biuro-rachunkowe/adres,,https://twitter.com/intent/tweet?url=https://mapa.targeo.pl/biuro-rachunkowo-podatkowe-finans-95-ul-wojska-polskiego-25-27-41-200-sosnowiec~13671014/biuro-rachunkowe/adres,,
Biuro Rachunkowe OPTI-TAX Sosnowiec Ksiƒôgowo≈õƒá,Hanki Ordon√≥wny 14/2,Sosnowiec,http://www.opti-tax.pl/,+48 514 428 849,"biuro@opti-tax.pl, hello@fochtman.studio",,,,,
Digesta - Biuro Rachunkowe Podatkowe Sosnowiec,3 Maja 21,Sosnowiec,http://www.rachunkowe-sosnowiec.pl/,+48 32 266 37 81,,,,,,
S≈Çabo≈Ñ-Sikora Aneta Biuro Rachunkowo-Podatkowe Doradca Podatkowy,Niepodleg≈Ço≈õci 14b/5,Sosnowiec,,+48 606 677 823,,,,,,
Biuro Us≈Çug Ksiƒôgowych Plus Sp. z o.o. (Partner OSCBR),Antoniego Frankiewicza 9,Sosnowiec,https://www.facebook.com/plusbuk,+48 502 283 603,,https://www.facebook.com/plusbuk,,,,
Biuro Rachunkowe Abacus sp. zoo,Dojazdowa 10 a,Sosnowiec,http://www.biuroabacus.eu/,+48 32 294 84 67,,,,,,
Biuro Rachunkowe Advizor,Stanis≈Çawa Ma≈Çachowskiego 28,Sosnowiec,https://advizor.pl/,+48 32 785 01 27,annaszostak@advizor.pl,https://www.facebook.com/biurorachunkowesosnowiec/reviews/?ref=page_internal,,,6443491454,
Biuro rachunkowe Casus,STAWOWA 4 28,Sosnowiec,http://biurorachunkowecasus.pl/,+48 32 290 01 71,,,,,,
BIURO RACHUNKOWE Sosnowiec ≈örodula RATIO s.c.,Wincentego Pola 12,Sosnowiec,http://www.biuroratio.pl/,+48 721 200 260,ratio@biuroratio.pl,,,,,
Czarnecka-Mandla Anna. Biuro rachunkowe,Stefana Kisielewskiego 15,Sosnowiec,,+48 606 139 569,,,,,,
Biuro Rachunkowe AD,Warszawska 20,Sosnowiec,,+48 32 296 32 46,,,,,,
Kancelaria JW,wej≈õcie z boku,Sosnowiec,http://kancelariajw.pl/,+48 501 710 080,,,,,,
Zaufana Ksiƒôgowa Sp. Z O.O.,Jerzego Kukuczki 4,Sosnowiec,https://www.facebook.com/profile.php?id=100083580482401,+48 32 307 08 97,,https://www.facebook.com/profile.php?id=100083580482401,,,,
"Biuro rozlicze≈Ñ zagranicznych Sosnowiec - PodatkimeritumüèÜzwrot podatku z zagranicy (Niemcy, Holandia, Belgia)",Holandia ,Sosnowiec,https://www.podatkimeritum.pl/zwrot-podatku-z-zagranicy-sosnowiec/,+48 668 808 898,biuro@podatkimeritum.pl,https://www.facebook.com/MeritumGroup,,,,
KDP-S≈Çawi≈Ñska,Kazimierza Tetmajera 10,Sosnowiec,https://kdp-slawinska.pl/,+48 606 823 703,kancelaria@kdp-slawinska.pl,,,,,
Kancelaria Buchacz. Biuro Rachunkowe Katowice i Kancelaria Prawna,Aleja Walentego Ro≈∫dzie≈Ñskiego 188D,Katowice,https://kancelariabuchacz.pl/,+48 501 725 801,,https://www.facebook.com/kancelariabuchacz.online,https://www.instagram.com/nowoczesny.ksiegowy,,,
Pitagoras. Biuro rachunkowe. ≈Åagocka J.,Jagiello≈Ñska 13B/117,Sosnowiec,,+48 32 266 97 39,,,,,,
Biuro rachunkowe DORMAR s.c. (Partner OSCBR),Czarna 12,Sosnowiec,,+48 32 269 51 05,,,,,,
"Biuro rachunkowe s.c. Karcz, Suwa≈Ça, Suwa≈Ça",Suwa≈Ça ,Sosnowiec,,+48 32 269 37 71,,,,,,
Biuro rachunkowe Tw√≥j Rachmistrz Bo≈ºena Gackowska-Stawiarz,Szpak√≥w 2A/12,Sosnowiec,http://www.twojrachmistrz.com.pl/,+48 604 576 886,,,,,,
"Doradca. Biuro rachunkowe. Wierzbicka A., doradca podatkowy",doradca podatkowy,Sosnowiec,,+48 32 298 20 50,,,,,,
Akord. Biuro rachunkowe,Stanis≈Çawa Moniuszki 29,Sosnowiec,,+48 32 269 77 61,,,,,,
"Kancelaria Rachunkowa ""OMEGA"" Sp. z o.o.",Wojska Polskiego 31,Sosnowiec,http://www.ksiegowasosnowiec.eu/,+48 789 113 310,biuro@ksiegowasosnowiec.eu,https://www.facebook.com/Kancelaria-Rachunkowo-Prawna-omega-Alicja-Wola-787420331317344/?fref=ts,,,6443545374,
"Wittmann Bo≈ºena, doradca podatkowy",doradca podatkowy,Sosnowiec,,+48 32 298 80 84,,,,,,
biuro euro-punkt.pl Sosnowiec,aleja Ksiƒôdza Franciszka Blachnickiego 3,Sosnowiec,"https://www.euro-punkt.pl//zwrot-podatku-w-z-zagranicy-,2,2,4319,,4319",+48 668 808 898,,,,,,
"Biuro Rachunkowe ""Aleksandra""",Wile≈Ñska 27,Sosnowiec,,+48 698 372 802,,,,,,
Biuro Rachunkowe Katarzyna Nowak,Teatralna 9/pok√≥j 316,Sosnowiec,http://www.knbiuro.pl/,+48 607 580 695,knbiuro@gmail.com,https://www.facebook.com/AncoraThemes/,https://www.instagram.com/ancora_themes/,https://twitter.com/themes_ancora,,
"Werva Solutions - Zak≈Çadanie sp√≥≈Çek, ksiƒôgowo≈õƒá, biuro rachunkowe",ksiƒôgowo≈õƒá ,Sosnowiec,http://wervasolutions.pl/,+48 732 728 275,BIURO@WERVA.ORG,,,,,
Biuro Rachunkowe,Legion√≥w 24/7,Sosnowiec,https://www.ochenduszko.pl/kontakt.html,+48 32 266 03 03,biuro@ochenduszko.pl,https://www.facebook.com/wawelexpress,,,6441834387,
Kancelaria Doradcy Podatkowego Tomasz Kami≈Ñski,Ch≈Çodna 2/27,Sosnowiec,http://cenytransferowe.co/,+48 697 968 401,,,,,,
Strefa Rachunkowa FINEO Edyta Ko≈Çodziejczyk,Wojska Polskiego 219a,Sosnowiec,https://ksiegowosc-fineo.pl/,+48 509 395 329,biuro@ksiegowosc-fineo.pl,https://www.facebook.com/people/Edyta-Ko≈Çodziejczyk-Strefa-Rachunkowa-FINEO/100088390250018/,,,,
Biuro Ksiƒôgowe ATENA,Stanis≈Çawa Ma≈Çachowskiego 7/II Lokal nr 1,Sosnowiec,http://www.atenabiuroksiegowe.pl/,+48 519 622 627,,https://www.facebook.com/ATENA-Biuro-Ksi%C4%99gowe-103769188429130,,,,
Biuro Rachunkowe - BHP Agnieszka Bia≈Ças,Marsza≈Çka J√≥zefa Pi≈Çsudskiego 44,Sosnowiec,http://biurorachunkowebialas.pl/,+48 32 767 60 60,"biuro-info@biurorachunkowebialas.pl, biuro-sosnowiec@biurorachunkowebialas.pl, biuro-katowice@biurorachunkowebialas.pl",https://www.facebook.com/Biuro-Rachunkowe-BHP-Agnieszka-Bia≈Ças-283438105093722/?_rdc=1&_rdr,,,,
Biuro Rachunkowe ESLA,Kr√≥lowej Jadwigi 11/2,Sosnowiec,http://biuro-rachunkowe-esla.pl/,+48 501 927 130,biuro.esla@gmail.com,https://www.facebook.com/BIURO.ESLA/?modal=admin_todo_tour  ,,,,
Biuro Rachunkowe DORADCA,al. Zwyciƒôstwa 29/5,Sosnowiec,,+48 500 609 044,,,,,,
Biuro Rachunkowo - Ksiƒôgowe ‚Äú60-tka‚Äù,ul ,Sosnowiec,https://50-tka.pl/,+48 32 266 03 79,,,,,,
euro-punkt.pl,ul ,Sosnowiec,"https://www.euro-punkt.pl/zwrot-podatku-z-zagranicy-sosnowiec,2,2,9141",+48 32 263 42 63,,,,,,
Vat Polska - Negometal group,Mariacka 1/23,Sosnowiec,http://www.negometal.com/pl,+48 32 290 04 70,,,,https://twitter.com/Ngomtal1,,
Biuro rachunkowe A&M Wo≈∫ny Sp. z o. o.,≈örednia 3,Zabrze,http://www.biurowozny.pl/,+48 508 717 889,korespondencja@biurowozny.pl,https://www.facebook.com/biurowozny,,,,
Biuro Rachunkowe Troska,Jagiello≈Ñska 1,Zabrze,http://troska.net/,+48 783 048 183,biuro.troska@wp.pl,https://www.facebook.com/biuro.troska,,,6481642926,
Permag.pl Biuro Rachunkowe Sp. z o.o.,My≈õliwska 85,Zabrze,https://permag.pl/,+48 661 486 550,biuro@permag.pl,https://www.facebook.com/PHU-Permag-1736708103279548/,,,6482785007,
Biuro Rachunkowe Agam,Henryka Sienkiewicza 18,Zabrze,http://www.br-agam.pl/,+48 32 733 07 73,,,,,0327330773,
Biuro Rachunkowe LUKRE Monika Kluk,Pawliczka 22A,Zabrze,https://www.biurolukre.pl/,+48 509 924 747,biuro@lukre.pl,https://www.facebook.com/brlukre/,,,,
Biuro Rachunkowe Barbara Kacprzyk,Juliusza S≈Çowackiego 2,Zabrze,http://bkbiuro.pl/,+48 32 271 81 79,biuro@bkbiuro.pl,,,,,
Biuro rachunkowe Romex Zabrze,Parkowa 27,Zabrze,http://www.rachunkowe.zabrze.pl/,+48 32 376 21 55,,,,,,
A&R Biuro Us≈Çug Ksiƒôgowych s.c.,Wolno≈õci 274,Zabrze,http://www.biuroksiegowe.net.pl/,+48 32 278 53 32,ksiegowazabrze@gmail.com,,,,6482576999,
Biuro Rachunkowe URIOS Sp. z o.o.,plac Warszawski 10,Zabrze,http://www.urios.pl/,+48 693 343 633,poczta@urios.pl,,,,,
Biuro Rachunkowe Tempus,Wolno≈õci 388,Zabrze,https://www.biurorachunkowetempus.pl/,+48 662 113 255,,,,,,
Biuro rachunkowe SODAR-CASUS Dariusz Sosnowski,Ksiƒôdza J√≥zefa Wajdy 3,Zabrze,http://brsodar.pl/,+48 32 777 30 61,,https://www.facebook.com/mmstylisci/,,,,
"Biuro Rachunkowe TAX-NET S.A. Ksiƒôgowo≈õƒá, Podatki, Doradztwo | Ksiƒôgowo≈õƒá Zabrze",Podatki ,Zabrze,https://tax-net.pl/biuro-rachunkowe-zabrze/,+48 32 271 85 72,biuro@tax-net.pl,https://pl-pl.facebook.com/pages/category/Accountant/TAX-NET-212844738729579/,,https://twitter.com/tax_net,,
"≈Åukaszczyk Krystyna, mgr Biuro rachunkowe",mgr Biuro rachunkowe,Zabrze,http://podatkowe24.pl/,+48 32 275 16 25,605a7baede844d278b89dc95ae0a9123@sentry-next.wixpress.com,http://www.facebook.com/wix,,http://www.twitter.com/wix,,
Biuro Rachunkowe KPIR Patrycja Morciszek,Wolno≈õci 191/pok√≥j 610,Zabrze,https://www.facebook.com/BiuroRachunkoweKPiR,+48 603 834 227,,https://www.facebook.com/BiuroRachunkoweKPiR,,,,
Biuro Rachunkowe J&J s.c.,Mieczys≈Çawa Niedzia≈Çkowskiego 49,Zabrze,http://biurojj.net/,+48 32 376 30 90,kontakt@biuroJJ.net,,,,,
Biuro Rachunkowe EASY TAX,Wolno≈õci 191,Zabrze,http://biuroeasytax.pl/,+48 608 064 375,kontakt@biuroeasytax.pl,https://www.facebook.com/pages/Biuro-rachunkowe-EASY-TAX/602563219796027,,,,
Biuro Rachunkowe AFIN Adam Urba≈Ñczyk,Wolno≈õci 94/310,Zabrze,http://www.afin.pl/,+48 606 525 760,kontakt@afin.pl,,,,,
Bromboszcz Gabriela. Biuro rachunkowe,Jerzego Wyciska 5A,Zabrze,,+48 32 274 97 78,,,,,,
Paragraf. Biuro podatkowe. Krƒô≈ºel T.,Mieczys≈Çawa Niedzia≈Çkowskiego 49,Zabrze,,+48 32 376 30 90,,,,,,
Biuro Rachunkowe KPIR Patrycja Morciszek,Wolno≈õci 191/pok√≥j 610,Zabrze,https://www.facebook.com/BiuroRachunkoweKPiR,+48 603 834 227,,https://www.facebook.com/BiuroRachunkoweKPiR,,,,
Biuro Rachunkowe Dagra,Srebrna 4,Zabrze,http://www.biuro-rachunkowe-dagra.pl/,+48 32 274 20 60,kontakt@biuro-rachunkowe-dagra.pl,,,,6481000518,
Biuro Rachunkowe Tempus,Wolno≈õci 388,Zabrze,https://www.biurorachunkowetempus.pl/,+48 662 113 255,,,,,,
"≈Åukaszczyk Krystyna, mgr Biuro rachunkowe",mgr Biuro rachunkowe,Zabrze,http://podatkowe24.pl/,+48 32 275 16 25,605a7baede844d278b89dc95ae0a9123@sentry-next.wixpress.com,http://www.facebook.com/wix,,http://www.twitter.com/wix,,
Biuro rachunkowe SODAR-CASUS Dariusz Sosnowski,Ksiƒôdza J√≥zefa Wajdy 3,Zabrze,http://brsodar.pl/,+48 32 777 30 61,,https://www.facebook.com/mmstylisci/,,,,
Biuro rachunkowe,Adama Asnyka 22,Zabrze,http://biuronocek.pl/,+48 32 271 43 34,,,,,,
Biuro Rachunkowe Venit,Pawliczka 25/lok 27,Zabrze,,+48 730 250 474,,,,,,
"Kozok Joanna, mgr. Doradztwo podatkowe",mgr. Doradztwo podatkowe,Zabrze,,+48 32 274 00 81,,,,,,
Biuro Rachunkowe Dagra,Srebrna 4,Zabrze,http://www.biuro-rachunkowe-dagra.pl/,+48 32 274 20 60,kontakt@biuro-rachunkowe-dagra.pl,,,,6481000518,
Ma≈Çgorzata Tyto≈Ñ,Gabrieli Zapolskiej 27,Zabrze,,+48 517 632 581,,,,,,
Biuro Rachunkowe AFIN Adam Urba≈Ñczyk,Wolno≈õci 94/310,Zabrze,http://www.afin.pl/,+48 606 525 760,kontakt@afin.pl,,,,,
Biuro Rachunkowe Vigo,Gen. Charlesa de Gaulle'a 76,Zabrze,"https://zabrze.com.pl/w,biuro-rachunkowe-vigo,95,188.html",,,,,,,
Biuro Rachunkowe E-KSIƒòGOWI Sp. z o.o.,Gen. W≈Çadys≈Çawa Sikorskiego 138A,Zabrze,http://www.e-ksiegowi.com.pl/,+48 730 638 337,biuro@e-ksiegowi.com.pl,,,,,
"Biuro Rachunkowe HOSSA - Zabrze, Gliwice",Gliwice ,Zabrze,http://www.biuro-rachunkowe.zabrze.pl/,+48 32 274 20 42,,,,,,
Biuro rachunkowe Vikar,Szczƒô≈õƒá Bo≈ºe 21a,Zabrze,,+48 32 375 09 10,,,,,,
LIBRA KANCELARIA RACHUNKOWA BO≈ªENA STUDZI≈ÉSKA-GRZESIK,ul ,Zabrze,http://www.libra-zabrze.pl/,+48 600 500 465,bozena.grzesik@libra-zabrze.pl,,,,,
Biuro Rachunkowe ATU,Wolno≈õci 191,Zabrze,https://www.biuro-rachunkowe.e-zabrze.pl/,+48 501 407 810,lilla_krol@op.pl,,,,,
Biuro Rachunkowe WROSKO Zabrze - Ksiƒôgowi,Hagera 41/14,Zabrze,https://wrosko-biurorachunkowe.pl/,+48 511 253 949,biuro@wrosko.pl,,,,,
Biuro Rachunkowe Abacus,Wojciecha Kossaka 30,Zabrze,https://www.facebook.com/pg/Biuro-Rachunkowe-Abacus-Zabrze-619288101421831/about/,+48 32 274 66 84,,https://www.facebook.com/pg/Biuro-Rachunkowe-Abacus-Zabrze-619288101421831/about/,,,,
Zwrot podatku z zagranicy-Niemiec-Holandii-Austrii-Anglii-Irlandii-biuro Fenixtax.pl - Zabrze,3 Maja 43,Zabrze,,+48 666 315 535,,,,,,
Biuro Rachunkowe Zdzis≈Çawa Dyjak,Wolno≈õci 236,Zabrze,https://biuro-dyjak.pl/,+48 662 101 528,,,,,,
Biuro Rachunkowe Podatki z PasjƒÖ Kamila Weznerowicz,Tadeusza Banachiewicza 17/39,Zabrze,https://podatkizpasja.pl/,+48 796 380 645,"biuro@podatkizpasja.pl, kamilaweznerowicz@gmail.com",,,,6482638329,
Analiza Biuro Rachunkowe Jolanta Pol,J√≥zefa Lompy 41,Zabrze,http://biuroanaliza.com.pl/,+48 32 630 31 70,twoj@email.pl,http://www.facebook.com/analizabiurorachunkowe,,,,
Paragraf,plac Krakowski 6,Zabrze,,+48 32 271 53 99,,,,,,
TimeTax Zabrze | Zwrot i rozliczenie podatku z zagranicy,≈örednia 3,Zabrze,https://www.timetax.pl/zwrot-podatku-z-zagranicy-zabrze/?utm_source=google&utm_medium=organic&utm_campaign=gmb-listing,+48 509 843 376,kontakt@timetax.pl,https://pl-pl.facebook.com/pg/timetax.zwrot.podatku/reviews/,https://instagram.com/timetax_zwrot_podatku?igshid=YmMyMTA2M2Y=,,7543047558,
Biuro Rachunkowe Zabrze Dorota Ochnik,Stanis≈Çawa Staszica 17,Zabrze,http://ksiegowoscochnik.pl/,+48 509 333 635,,,,,,
Alfa-Omega Ma≈Çgorzata Majda,Wolno≈õci 339,Zabrze,http://www.alfaomega.com.pl/,+48 32 370 16 19,,,,,,
Biuro Rachunkowe RENOMA,Franklina Roosevelta 118,Zabrze,,+48 509 363 819,,,,,,
Sp√≥≈Çdzielnia Socjalna Ksiƒôgowych W Zabrzu,Grunwaldzka 14C,Zabrze,https://www.biurosskk.pl/,+48 791 550 258,biuro@sskk.pl,http://www.facebook.com/wix,https://www.instagram.com/wix/,http://www.twitter.com/wix,,
Meritum. Biuro rachunkowo - finansowe,Mickiewicza 64,Zabrze,http://www.meritumbiurorachunkowe.pl/,+48 792 000 401,,,,,,
Idea Ksiƒôgowo≈õƒá Wsp√≥lnot Mieszkaniowych - El≈ºbieta Idzior,Stanis≈Çawa Struzika 12b/13,Zabrze,http://idea.slask.pl/,+48 608 432 373,biuro@idea.slask.pl,,,,,
Biuro rachunkowe Markpol MG,Stra≈ºacka 2/1,Zabrze,http://markpolmg.pl/contact/,+48 513 129 319,"biuro@markpolmg.pl, ksiegowosc@markpolmg.pl",,,,6482822004,
Dekret Sybila Olszewska,Wolno≈õci 345/909,Zabrze,,+48 504 301 229,,,,,,
Piaseczny Janusz. Podatkowe Biuro Rachunkowe- doradztwo podatkowe Zabrze,Krakowska 39,Zabrze,,+48 32 272 48 18,,,,,,
Solid Partner Ksiƒôgowo≈õƒá Sp zoo,SƒÖdowa 2/6,Zabrze,https://solid-partner.pl/,+48 500 042 545,,,,,1921928619,
UHY ECA Zabrze,Pawliczka 25,Zabrze,http://uhy-pl.com/,+48 32 376 41 40,biuro@uhy-pl.com,https://www.facebook.com/UHYECA/,,https://twitter.com/uhy_eca,6751476321,
Biuro rachunkowe - Asset,Stanis≈Çawa ≈ª√≥≈Çkiewskiego 9/7,Gliwice,https://asset-biurorachunkowe.pl/,+48 32 331 19 85,,,,,,
Omega - biuro rachunkowe,Kardyna≈Ça Stefana Wyszy≈Ñskiego 19A,Zabrze,,+48 32 272 22 59,,,,,,
Podatkowe Biuro Rachunkowe Halina Piaseczna,Krakowska 39A/1,Zabrze,,+48 500 855 405,,,,,,
IWANTEX Biuro Rachunkowe,Budowlana 114/3,Zabrze,http://www.iwantex.pl/,+48 536 706 707,biuro@iwantex.pl,https://www.facebook.com/iwantex.biurorachunkowe/?fref=ts,,,,
Biuro Rachunkowe Katarzyna i Dariusz Duma≈Ça,Rynek 14,Tarnowskie G√≥ry,http://www.biurokdd.pl/,+48 508 773 739,biuro@biurokdd.pl,https://www.facebook.com/BiuroRachunkoweBrevent,,,,
"Us≈Çugi ksiƒôgowe, ksiƒôgowa Ma≈Çgorzata D≈Çugajczyk",ksiƒôgowa Ma≈Çgorzata D≈Çugajczyk,Tarnowskie G√≥ry,https://ksiegowosc-dlugajczyk.pl/,+48 663 929 207,,,,,,
