title,address,city,website,phone,emails,facebook,instagram,twitter,nip,ceidg
Game Center,plac Teatralny 12,Zabrze,https://m.facebook.com/GameCenterZabrze/,+48 531 000 686,,https://m.facebook.com/GameCenterZabrze/,,,,
Będzie Granie sklep z grami video,Staromiejska 2,Zabrze,https://m.facebook.com/bedziegranie,+48 531 507 928,,https://m.facebook.com/bedziegranie,,,,
Spektrum - Serwis Konsol / Naprawa - Gry - Zabrze,Wandy 2,Zabrze,http://www.spektrum-sklep.pl/,+48 32 266 09 38,biuro@spektrum-sklep.pl,https://www.facebook.com/spektrumzabrze,,,,
Sklep Gamer - sklep z grami na konsolę,Targowa 6A,Wodzisław Śląski,http://www.sklepgamer.pl/,+48 601 283 536,sklepgamer@gmail.com,https://www.facebook.com/SklepGamer,,,,
OSNOWA.PL,Katowicka 24,Jastrzębie-Zdrój,https://osnowa.pl/,+48 601 701 618,info@osnowa.pl,,,,,
ProGames Poland,Rybnicka 19 A,Jastrzębie-Zdrój,http://www.progames.pl/,+48 604 978 462,office@progames.pl,https://www.facebook.com/BoxerProgames/,https://www.instagram.com/progames.pl/,,6332130434,
Wymiana Gier Bytom,plac Sikorskiego 4,Bytom,,+48 606 377 202,,,,,,
Next Gen Serwis Konsol,Dworcowa 21,Bytom,http://ww.serwiskonsol.com/,+48 504 282 464,info@serwiskonsol.com,https://www.facebook.com/ThemeRexStudio,https://www.instagram.com/themerex_net/,https://twitter.com/ThemerexThemes,,
Playsoft,Dworcowa 1,Bytom,http://www.playsoft.pl/,+48 729 143 598,,,,,,
Gambit - gry i konsole,Wolności 70,Chorzów,,+48 608 054 678,,,,,,
MOSBIT - Serwis komputerów | Serwis konsol | Usługi informatyczne,Antoniego Józefczaka 27,Bytom,https://www.mosbit.pl/,+48 32 321 90 73,,https://www.facebook.com/mosbit.bytom,,,,
WikaPlay,Boczna 1,Chorzów,,+48 533 741 358,,,,,,
Gambit - gry i konsole,Wolności 70,Chorzów,,+48 608 054 678,,,,,,
Gry I Konsole Wymiana Gier Playsoft,w bramie,Chorzów,http://www.playsoft.pl/,+48 729 007 529,,,,,,
Gry na konsole - ZuzaGry,Metalowców 13A2,Chorzów,http://zuzagry.pl/,+48 511 913 977,zuzagry.sklep@gmail.com,https://www.facebook.com/profile.php?id=100064239875767,https://www.instagram.com/zuzagry.sklep/,,,
Inny Wymiar,Katowicka 6,Chorzów,https://inny-wymiar.pl/,+48 537 902 095,shop@inny-wymiar.pl,https://www.facebook.com/Inny-Wymiar-458338801017316,,,,
Świat Gier Tv,Aleja Najświętszej Maryi Panny 28,Częstochowa,,+48 601 438 291,,,,,,
"Sklep z grami na konsole ""Strefa Gier""",Jana III Sobieskiego 72,Częstochowa,,+48 511 591 826,,,,,,
GryPlanszowe24.pl,Świętego Rocha 8,Częstochowa,http://gryplanszowe24.pl/,+48 34 372 06 78,,,,,,
CeX,Aleja Najświętszej Maryi Panny 31,Częstochowa,https://pl.webuy.com/,+48 503 738 458,,,,,,
Game Zone,Aleja Tadeusza Kościuszki 5,Częstochowa,,,,,,,,
Naprawa Konsol PS5 PS3 Xbox,Wejscie A,Częstochowa,,+48 535 242 565,,,,,,
Serwis Konsol PlayStation Xbox,Juliana Fałata 10,Gliwice,,+48 733 830 999,,,,,,
Next Gen Serwis Konsol,Aleksandra Skowrońskiego 26a,Gliwice,https://www.serwiskonsol.com/,+48 504 282 464,info@serwiskonsol.com,https://www.facebook.com/ThemeRexStudio,https://www.instagram.com/themerex_net/,https://twitter.com/ThemerexThemes,,
Ino Szpilać," ",,,+48 789 424 521,,,,,,
Kraina Goblinów,Cichociemnych 18/16,Gliwice,http://krainagoblinow.pl/,+48 888 722 789,kontakt@krainagoblinow.pl,https://www.facebook.com/Kraina-Goblin%C3%B3w-2284781811767901/,,https://twitter.com/kgoblinow,,
xGameCenter,Księdza Piotra Skargi 6,Katowice,http://xgamecenter.pl/,+48 518 333 373,biuro@xgamecenter.pl,https://www.facebook.com/xgamecenter/,https://www.instagram.com/xgamecenter/,,,
FunHouse Katowice - Interaktywne Muzeum Flipperów i Gier Arcade | Salon Gier | Flippery Śląsk | Sala zabaw,Bogucicka 7,Katowice,https://www.funhousekatowice.pl/,+48 722 262 699,biuro@funhousekatowice.pl,https://www.facebook.com/FunHouseKatowice,https://www.instagram.com/funhousekatowice/,,,
Ino Szpilać," ",,,+48 789 424 521,,,,,,
Konsolownia.pl,Floriana 11,Ruda Śląska,http://www.konsolownia.pl/,+48 791 726 268,,,,,,
Play_gamE,Bolesława Prusa 8,Rybnik,,+48 515 915 648,,,,,,
NEW GAME PLUS,Marii Skłodowskiej-Curie 1E,Rybnik,,+48 508 642 163,,,,,,
