title,address,city,website,phone,emails,facebook,instagram,twitter,nip,ceidg
Game Center,plac Teatralny 12,Zabrze,https://m.facebook.com/GameCenterZabrze/,+48 531 000 686,,https://m.facebook.com/GameCenterZabrze/,,,,
Będzie Granie sklep z grami video,Staromiejska 2,Zabrze,https://m.facebook.com/bedziegranie,+48 531 507 928,,https://m.facebook.com/bedziegranie,,,,
Spektrum - Serwis Konsol / Naprawa - Gry - Zabrze,Wandy 2,Zabrze,http://www.spektrum-sklep.pl/,+48 32 266 09 38,biuro@spektrum-sklep.pl,https://www.facebook.com/spektrumzabrze,,,,
Arena Gry,Grunwaldzka 59/lok. 242,Jaworzno,,+48 664 277 677,,,,,,
Red Box,plac Krakowski 1,Zabrze,https://www.redboxpc.pl/,+48 32 278 47 10,,,https://www.instagram.com/redboxpc/?hl=pl,,,
Komputronik,Grunwaldzka 119,Jaworzno,https://www.komputronik.pl/,+48 32 615 60 58,sklep@komputronik.pl,https://www.facebook.com/komputronik,https://www.instagram.com/Komputronik/,https://twitter.com/Komputronik_pl,,
PROG-INFO,Żwirki I Wigury 2,Jaworzno,http://www.prog-info.pl/,+48 32 751 99 29,salon@prog-info.pl,https://www.facebook.com/proginfo.jaworzno,,,,
"RedboX.kylos.pl Konsole, Laptopy, Tablety - Serwis i Naprawa",Laptopy ,Jaworzno,https://redbox.kylos.pl/,+48 574 610 077,"serwis.redbox@gmail.com, SERWIS.REDBOX@GMAIL.COM",https://www.facebook.com/media/set/?set=a.106818828238977&type=3,,,,
VOPI Paweł Pietrzyński,Leśna 79B,Jaworzno,,+48 511 558 861,,,,,,
ART-COM Sp. z o.o.,Grunwaldzka 120,Jaworzno,http://www.artcom.pl/,+48 32 745 45 45,,https://www.facebook.com/artcompl,,,,
Serwis komputerowy SIMKOMP Szymon Wacławek,Sulińskiego 13c,Jaworzno,http://www.simkomp.pl/,+48 794 338 508,,https://pl-pl.facebook.com/simkompserwis/,,,,
MGŁA.PL,Fabryczna 90,Jaworzno,http://mgla.pl/,+48 505 240 851,"sklep@mgla.pl, sboja@jawnet.pl",//www.facebook.com/MglaJaworzno,,,,
GamesPoint.pl,Księdza Stanisława Stojałowskiego 1,Jaworzno,,+48 32 616 53 50,,,,,,
Morigal,świętego Wojciecha 10,Jaworzno,http://morigal.pl/,+48 574 418 373,gry@morigal.pl,,,,,
MOSBIT - Serwis komputerów | Serwis konsol | Usługi informatyczne,Antoniego Józefczaka 27,Bytom,https://www.mosbit.pl/,+48 32 321 90 73,,https://www.facebook.com/mosbit.bytom,,,,
Playsoft,Dworcowa 1,Bytom,http://www.playsoft.pl/,+48 729 143 598,,,,,,
CYBERIA - Laptopy Nowe i Poleasingowe - Bytom,Strażacka 5,Bytom,http://www.e-cyberia.pl/,+48 883 280 008,sklep@e-cyberia.pl,https://www.facebook.com/cyberia.laptopy,https://www.instagram.com/e_cyberia.pl/,,6263030390,
Wymiana Gier Bytom,plac Sikorskiego 4,Bytom,,+48 606 377 202,,,,,,
Megacomp. Humenny M.,Strzelców Bytomskich 268KC,Bytom,http://www.megacomp.pl/,+48 32 289 06 57,,,,,6452218522,
SplitBit - Obsługa informatyczna firm | Serwis programów InsERT,Powstańców Śląskich 1,Bytom,http://www.splitbit.pl/,+48 32 718 68 62,,https://www.facebook.com/SplitBit,,,,
inMIX.pl,Brama C2,Bytom,http://www.inmix.pl/,+48 32 797 35 35,"allegro@inmix.pl, hurt@inmix.pl",,,,4980147687,
Pro-Cesor Serwis,Stanisława Moniuszki 1/1,Bytom,http://www.naprawimy.org/,+48 574 697 337,,https://www.facebook.com/Pro-Cesor-Serwis-101917188250896,,,,
Profesjonalny serwis laptopów i komputerów - DARMOWA* diagnoza,Stanisława Witczaka 160,Bytom,https://www.jb-s.pl/,+48 787 028 460,"biuro@jb-s.pl, info@email.com",https://www.facebook.com/AxiomThemes-505060569826537/,https://www.instagram.com/axiom_themes/,https://twitter.com/ThemesAxiom,6262901865,
IT WORKSHOP Michał Miszczyszyn,Suchogórska 118,Bytom,https://www.it-w.pl/,+48 601 356 805,kontakt@it-w.pl,https://www.facebook.com/itworkshopbytom,,,6262796799,
Reinstall Serwis - Profesjonalna Naprawa Laptopów i Komputerów,Strażacka 5,Bytom,https://reinstall-serwis.pl/,+48 881 713 930,,,,,,
Next Gen Serwis Konsol,Dworcowa 21,Bytom,http://ww.serwiskonsol.com/,+48 504 282 464,info@serwiskonsol.com,https://www.facebook.com/ThemeRexStudio,https://www.instagram.com/themerex_net/,https://twitter.com/ThemerexThemes,,
MiG s.c,pokój 107,Bytom,http://www.mig.bytom.pl/,+48 32 787 65 78,sklep@mig.bytom.pl,,,,,
Strefa Rozrywki - Agora Bytom,plac Tadeusza Kościuszki 1,Bytom,http://www.strefarozrywki.com/,+48 697 697 227,,,,,,
Gambit - gry i konsole,Wolności 70,Chorzów,,+48 608 054 678,,,,,,
Serwis i Naprawa Laptopów i Komputerów z Dojazdem i Gwarancją - Informatyk,Ignacego Mościckiego 22/A,Chorzów,https://naprawakomputerow.net.pl/,+48 609 464 900,"biuro@naprawakomputerow.net.pl, bytom@naprawakomputerow.net.pl, chorzow@naprawakomputerow.net.pl, katowice@naprawakomputerow.net.pl, siemianowice@naprawakomputerow.net.pl, swietochowice@naprawakomputerow.net.pl, rudaslaska@naprawakomputerow.net.pl",https://www.facebook.com/NaprawaSerwisKomputerowy/,https://www.instagram.com/twojserwiskomputerowy/,https://twitter.com/naprawaserwisk1,,
Gry I Konsole Wymiana Gier Playsoft,w bramie,Chorzów,http://www.playsoft.pl/,+48 729 007 529,,,,,,
Inny Wymiar,Katowicka 6,Chorzów,https://inny-wymiar.pl/,+48 537 902 095,shop@inny-wymiar.pl,https://www.facebook.com/Inny-Wymiar-458338801017316,,,,
WikaPlay,Boczna 1,Chorzów,,+48 533 741 358,,,,,,
Gry na konsole - ZuzaGry,Metalowców 13A2,Chorzów,http://zuzagry.pl/,+48 511 913 977,zuzagry.sklep@gmail.com,https://www.facebook.com/profile.php?id=100064239875767,https://www.instagram.com/zuzagry.sklep/,,,
Fan-Com Serwis komputerowy,Powstańców 19,Chorzów,,+48 882 456 645,,,,,,
Nowoczesny serwis laptopów i smartfonów CHORZÓW,Księdza Jana Gałeczki 36,Chorzów,,+48 690 795 931,,,,,,
Ino Szpilać," ",,,+48 789 424 521,,,,,,
"ABI - Laptopy poleasingowe, używane, serwis laptopów Chorzów",używane ,Chorzów,http://abi-laptopy.pl/,+48 698 311 592,,https://www.facebook.com/LaptopyABI,https://www.instagram.com/abilaptopy/,,,
Global Serwis Chorzów BEZPŁATNA DIAGNOZA Naprawa Laptopów / Komputerów / Telefonów / Tabletów / Konsoli,Katowicka 63,Chorzów,http://www.serwis-chorzow.pl/,+48 32 700 35 91,chorzow@global-serwis.pl,,,,,
LEO | Outsourcing IT | Rozszerzenia InsERT,Teodora Kalidego 69,Chorzów,http://www.leo.pl/,+48 32 770 13 39,"bok@leo.pl, kontakt@leo.pl",,,,,
"sklepelektronik.pl Akcesoria elektryczne, elektroniczne",elektroniczne ,Chorzów,,+48 692 379 978,,,,,,
Ministerstwo HiFi,3 Maja 4,Chorzów,,+48 797 996 044,,,,,,
EUROBUSINESS GAMES Sp. z o.o.,Kluczborska 11,Chorzów,http://eurobusinessgames.pl/,+48 664 424 242,,,,,6881299107,
GREMIT,Składowa 17,Chorzów,http://www.gremit.pl/,+48 533 229 339,biuro@gremit.pl,https://www.facebook.com/GremitPL,,,,
Świat Gier Tv,Aleja Najświętszej Maryi Panny 28,Częstochowa,,+48 601 438 291,,,,,,
"Kriss-Com. Sprzedaż komputerów Częstochowa. Naprawa, serwis komputerów.",serwis komputerów.,Częstochowa,http://www.kriss-com.pl/,+48 696 967 736,,https://www.facebook.com/krisscom,,,,
CeX,Aleja Najświętszej Maryi Panny 31,Częstochowa,https://pl.webuy.com/,+48 503 738 458,,,,,,
